GLOBALSTAR M067         
1 32263U 07048A   25005.51909417 -.00000067  00000+0  22572-3 0  9997
2 32263  51.9708 151.9093 0001177  59.0879  21.8833 12.40664076789296
GLOBALSTAR M070         
1 32264U 07048B   25005.44253477 -.00000052  00000+0  28802-3 0  9994
2 32264  51.9745 264.2890 0000995  71.3531  99.9093 12.62309695793117
GLOBALSTAR M066         
1 32265U 07048C   25005.83034142 -.00000069  00000+0  21225-3 0  9994
2 32265  51.9657 137.4577 0001468 110.8920  54.6190 12.42169244796144
GLOBALSTAR M068         
1 32266U 07048D   25005.60274081 -.00000086  00000+0  10007-3 0  9993
2 32266  51.9893  77.8643 0001591 134.6306  38.3798 12.62812821797015
GLOBALSTAR M079         
1 37188U 10054A   25005.47805433 -.00000072  00000+0  17839-3 0  9993
2 37188  52.0043 275.1022 0000648  42.9512 127.6467 12.62269489655900
GLOBALSTAR M074         
1 37189U 10054B   25005.50441711 -.00000072  00000+0  17800-3 0  9991
2 37189  52.0020 274.3686 0000984  60.3556 110.5535 12.62261252656513
GLOBALSTAR M076         
1 37190U 10054C   25005.45166556 -.00000075  00000+0  16093-3 0  9994
2 37190  52.0030 274.6859 0000984  42.9158 128.0548 12.62275773656224
GLOBALSTAR M077         
1 37191U 10054D   25005.56194337 -.00000085  00000+0  10595-3 0  9997
2 37191  52.0050 231.1608 0001051  75.2427 296.1810 12.62269620656617
